[{"OBJECT_NAME":"STARLINK-35706","OBJECT_ID":"2025-294X","EPOCH":"2026-03-12T06:27:25.449984","MEAN_MOTION":15.27597034,"ECCENTRICITY":0.00024257,"INCLINATION":43.0055,"RA_OF_ASC_NODE":23.5019,"ARG_OF_PERICENTER":241.9956,"MEAN_ANOMALY":118.065,"EPHEMERIS_TYPE":0,"CLASSIFICATION_TYPE":"U","NORAD_CAT_ID":67051,"ELEMENT_SET_NO":999,"REV_AT_EPOCH":1519,"BSTAR":0.00091163104,"MEAN_MOTION_DOT":0.00024923,"MEAN_MOTION_DDOT":0},{"OBJECT_NAME":"STARLINK-35720","OBJECT_ID":"2025-294Y","EPOCH":"2026-03-12T06:16:19.814880","MEAN_MOTION":15.27592866,"ECCENTRICITY":0.000175,"INCLINATION":43.0043,"RA_OF_ASC_NODE":23.4493,"ARG_OF_PERICENTER":283.5272,"MEAN_ANOMALY":76.5384,"EPHEMERIS_TYPE":0,"CLASSIFICATION_TYPE":"U","NORAD_CAT_ID":67052,"ELEMENT_SET_NO":999,"REV_AT_EPOCH":1519,"BSTAR":0.001324947,"MEAN_MOTION_DOT":0.00036392,"MEAN_MOTION_DDOT":0},{"OBJECT_NAME":"STARLINK-35739","OBJECT_ID":"2025-294Z","EPOCH":"2026-03-12T05:08:04.524864","MEAN_MOTION":15.27593898,"ECCENTRICITY":0.00020081,"INCLINATION":43.0002,"RA_OF_ASC_NODE":23.9521,"ARG_OF_PERICENTER":250.3407,"MEAN_ANOMALY":109.7228,"EPHEMERIS_TYPE":0,"CLASSIFICATION_TYPE":"U","NORAD_CAT_ID":67053,"ELEMENT_SET_NO":999,"REV_AT_EPOCH":1518,"BSTAR":0.00093511235,"MEAN_MOTION_DOT":0.00025571,"MEAN_MOTION_DDOT":0},{"OBJECT_NAME":"STARLINK-35754","OBJECT_ID":"2025-294AA","EPOCH":"2026-03-12T06:20:01.579488","MEAN_MOTION":15.27576297,"ECCENTRICITY":0.00018711,"INCLINATION":43.0057,"RA_OF_ASC_NODE":23.4722,"ARG_OF_PERICENTER":288.4927,"MEAN_ANOMALY":71.5721,"EPHEMERIS_TYPE":0,"CLASSIFICATION_TYPE":"U","NORAD_CAT_ID":67054,"ELEMENT_SET_NO":999,"REV_AT_EPOCH":1519,"BSTAR":0.0009119882,"MEAN_MOTION_DOT":0.00024916,"MEAN_MOTION_DDOT":0},{"OBJECT_NAME":"STARLINK-35790","OBJECT_ID":"2025-294AB","EPOCH":"2026-03-12T05:11:45.695040","MEAN_MOTION":15.27601292,"ECCENTRICITY":0.00043766,"INCLINATION":43.0007,"RA_OF_ASC_NODE":23.9697,"ARG_OF_PERICENTER":237.8646,"MEAN_ANOMALY":122.1781,"EPHEMERIS_TYPE":0,"CLASSIFICATION_TYPE":"U","NORAD_CAT_ID":67055,"ELEMENT_SET_NO":999,"REV_AT_EPOCH":1518,"BSTAR":0.0011997883,"MEAN_MOTION_DOT":0.00032929,"MEAN_MOTION_DDOT":0},{"OBJECT_NAME":"STARLINK-36143","OBJECT_ID":"2025-294AC","EPOCH":"2026-03-12T06:12:38.849472","MEAN_MOTION":15.27591415,"ECCENTRICITY":0.00014152,"INCLINATION":43.0025,"RA_OF_ASC_NODE":23.4315,"ARG_OF_PERICENTER":263.1072,"MEAN_ANOMALY":96.9618,"EPHEMERIS_TYPE":0,"CLASSIFICATION_TYPE":"U","NORAD_CAT_ID":67056,"ELEMENT_SET_NO":999,"REV_AT_EPOCH":1519,"BSTAR":0.001422968,"MEAN_MOTION_DOT":0.00039116,"MEAN_MOTION_DDOT":0},{"OBJECT_NAME":"STARLINK-36141","OBJECT_ID":"2025-294AD","EPOCH":"2026-03-12T06:07:04.675008","MEAN_MOTION":15.27598265,"ECCENTRICITY":0.00016251,"INCLINATION":43.004,"RA_OF_ASC_NODE":23.4049,"ARG_OF_PERICENTER":277.3393,"MEAN_ANOMALY":82.7274,"EPHEMERIS_TYPE":0,"CLASSIFICATION_TYPE":"U","NORAD_CAT_ID":67057,"ELEMENT_SET_NO":999,"REV_AT_EPOCH":1519,"BSTAR":0.0014058924,"MEAN_MOTION_DOT":0.0003865,"MEAN_MOTION_DDOT":0},{"OBJECT_NAME":"STARLINK-35767","OBJECT_ID":"2025-294AE","EPOCH":"2026-03-12T05:22:52.963104","MEAN_MOTION":15.27579607,"ECCENTRICITY":0.00015194,"INCLINATION":43.0014,"RA_OF_ASC_NODE":24.0285,"ARG_OF_PERICENTER":251.2837,"MEAN_ANOMALY":108.785,"EPHEMERIS_TYPE":0,"CLASSIFICATION_TYPE":"U","NORAD_CAT_ID":67058,"ELEMENT_SET_NO":999,"REV_AT_EPOCH":1518,"BSTAR":0.00096876211,"MEAN_MOTION_DOT":0.00026492,"MEAN_MOTION_DDOT":0},{"OBJECT_NAME":"STARLINK-36230","OBJECT_ID":"2025-298A","EPOCH":"2026-03-12T05:18:01.442592","MEAN_MOTION":14.99127611,"ECCENTRICITY":0.00028317,"INCLINATION":70.0015,"RA_OF_ASC_NODE":8.1884,"ARG_OF_PERICENTER":258.3815,"MEAN_ANOMALY":101.7027,"EPHEMERIS_TYPE":0,"CLASSIFICATION_TYPE":"U","NORAD_CAT_ID":67075,"ELEMENT_SET_NO":999,"REV_AT_EPOCH":1359,"BSTAR":2.9316759e-5,"MEAN_MOTION_DOT":2.63e-6,"MEAN_MOTION_DDOT":0},{"OBJECT_NAME":"STARLINK-36240","OBJECT_ID":"2025-298B","EPOCH":"2026-03-12T06:41:05.180352","MEAN_MOTION":14.99145045,"ECCENTRICITY":0.00025336,"INCLINATION":70.0016,"RA_OF_ASC_NODE":7.9893,"ARG_OF_PERICENTER":272.0884,"MEAN_ANOMALY":87.9985,"EPHEMERIS_TYPE":0,"CLASSIFICATION_TYPE":"U","NORAD_CAT_ID":67076,"ELEMENT_SET_NO":999,"REV_AT_EPOCH":1360,"BSTAR":3.1669742e-5,"MEAN_MOTION_DOT":2.92e-6,"MEAN_MOTION_DDOT":0},{"OBJECT_NAME":"STARLINK-36243","OBJECT_ID":"2025-298C","EPOCH":"2026-03-12T05:32:45.627360","MEAN_MOTION":14.9833766,"ECCENTRICITY":0.00015842,"INCLINATION":70.0018,"RA_OF_ASC_NODE":8.2271,"ARG_OF_PERICENTER":268.8206,"MEAN_ANOMALY":91.2771,"EPHEMERIS_TYPE":0,"CLASSIFICATION_TYPE":"U","NORAD_CAT_ID":67077,"ELEMENT_SET_NO":999,"REV_AT_EPOCH":1359,"BSTAR":0.00052820564,"MEAN_MOTION_DOT":6.216e-5,"MEAN_MOTION_DDOT":0},{"OBJECT_NAME":"STARLINK-36236","OBJECT_ID":"2025-298D","EPOCH":"2026-03-12T05:20:21.048576","MEAN_MOTION":14.99560983,"ECCENTRICITY":0.00112683,"INCLINATION":70.0034,"RA_OF_ASC_NODE":8.1959,"ARG_OF_PERICENTER":303.6915,"MEAN_ANOMALY":56.317,"EPHEMERIS_TYPE":0,"CLASSIFICATION_TYPE":"U","NORAD_CAT_ID":67078,"ELEMENT_SET_NO":999,"REV_AT_EPOCH":1359,"BSTAR":0.059420493,"MEAN_MOTION_DOT":0.0078469,"MEAN_MOTION_DDOT":0},{"OBJECT_NAME":"STARLINK-36159","OBJECT_ID":"2025-298E","EPOCH":"2026-03-12T06:05:56.647968","MEAN_MOTION":14.99141046,"ECCENTRICITY":0.00022438,"INCLINATION":70.0015,"RA_OF_ASC_NODE":7.9115,"ARG_OF_PERICENTER":259.1098,"MEAN_ANOMALY":100.9809,"EPHEMERIS_TYPE":0,"CLASSIFICATION_TYPE":"U","NORAD_CAT_ID":67079,"ELEMENT_SET_NO":999,"REV_AT_EPOCH":1360,"BSTAR":9.5739083e-5,"MEAN_MOTION_DOT":1.073e-5,"MEAN_MOTION_DDOT":0},{"OBJECT_NAME":"STARLINK-36158","OBJECT_ID":"2025-298F","EPOCH":"2026-03-12T05:44:30.139872","MEAN_MOTION":14.98339006,"ECCENTRICITY":0.00024598,"INCLINATION":70.0012,"RA_OF_ASC_NODE":7.8542,"ARG_OF_PERICENTER":271.2287,"MEAN_ANOMALY":88.8591,"EPHEMERIS_TYPE":0,"CLASSIFICATION_TYPE":"U","NORAD_CAT_ID":67080,"ELEMENT_SET_NO":999,"REV_AT_EPOCH":1360,"BSTAR":0.00048069403,"MEAN_MOTION_DOT":5.648e-5,"MEAN_MOTION_DDOT":0},{"OBJECT_NAME":"STARLINK-35864","OBJECT_ID":"2025-298G","EPOCH":"2026-03-12T06:00:00.999648","MEAN_MOTION":14.98323113,"ECCENTRICITY":0.00028278,"INCLINATION":70.0005,"RA_OF_ASC_NODE":7.8765,"ARG_OF_PERICENTER":274.2806,"MEAN_ANOMALY":98.9401,"EPHEMERIS_TYPE":0,"CLASSIFICATION_TYPE":"U","NORAD_CAT_ID":67081,"ELEMENT_SET_NO":999,"REV_AT_EPOCH":590,"BSTAR":0.0028371071,"MEAN_MOTION_DOT":0.00033917,"MEAN_MOTION_DDOT":0},{"OBJECT_NAME":"STARLINK-36035","OBJECT_ID":"2025-298H","EPOCH":"2026-03-12T06:00:00.999648","MEAN_MOTION":14.98326878,"ECCENTRICITY":0.00035098,"INCLINATION":70.0007,"RA_OF_ASC_NODE":7.9278,"ARG_OF_PERICENTER":291.5625,"MEAN_ANOMALY":36.5563,"EPHEMERIS_TYPE":0,"CLASSIFICATION_TYPE":"U","NORAD_CAT_ID":67082,"ELEMENT_SET_NO":999,"REV_AT_EPOCH":590,"BSTAR":0.0036233349,"MEAN_MOTION_DOT":0.00043407,"MEAN_MOTION_DDOT":0}]
