STARLINK-35706          
1 67051U 25294X   26071.26904456  .00024923  00000+0  91163-3 0  9995
2 67051  43.0055  23.5019 0002425 241.9956 118.0650 15.27597034 15197
STARLINK-35720          
1 67052U 25294Y   26071.26134045  .00036392  00000+0  13249-2 0  9996
2 67052  43.0043  23.4493 0001750 283.5272  76.5384 15.27592866 15193
STARLINK-35739          
1 67053U 25294Z   26071.21394126  .00025571  00000+0  93511-3 0  9998
2 67053  43.0002  23.9521 0002008 250.3407 109.7228 15.27593898 15186
STARLINK-35754          
1 67054U 25294AA  26071.26390717  .00024916  00000+0  91199-3 0  9998
2 67054  43.0057  23.4722 0001871 288.4927  71.5721 15.27576297 15190
STARLINK-35790          
1 67055U 25294AB  26071.21650110  .00032929  00000+0  11998-2 0  9991
2 67055  43.0007  23.9697 0004376 237.8646 122.1781 15.27601292 15183
STARLINK-36143          
1 67056U 25294AC  26071.25878298  .00039116  00000+0  14230-2 0  9992
2 67056  43.0025  23.4315 0001415 263.1072  96.9618 15.27591415 15195
STARLINK-36141          
1 67057U 25294AD  26071.25491522  .00038650  00000+0  14059-2 0  9995
2 67057  43.0040  23.4049 0001625 277.3393  82.7274 15.27598265 15194
STARLINK-35767          
1 67058U 25294AE  26071.22422411  .00026492  00000+0  96876-3 0  9993
2 67058  43.0014  24.0285 0001519 251.2837 108.7850 15.27579607 15188
STARLINK-36230          
1 67075U 25298A   26071.22085003  .00000263  00000+0  29317-4 0  9993
2 67075  70.0015   8.1884 0002831 258.3815 101.7027 14.99127611 13592
STARLINK-36240          
1 67076U 25298B   26071.27853218  .00000292  00000+0  31670-4 0  9997
2 67076  70.0016   7.9893 0002533 272.0884  87.9985 14.99145045 13600
STARLINK-36243          
1 67077U 25298C   26071.23108365  .00006216  00000+0  52821-3 0  9992
2 67077  70.0018   8.2271 0001584 268.8206  91.2771 14.98337660 13597
STARLINK-36236          
1 67078U 25298D   26071.22246584  .00784690  00000+0  59420-1 0  9997
2 67078  70.0034   8.1959 0011268 303.6915  56.3170 14.99560983 13595
STARLINK-36159          
1 67079U 25298E   26071.25412787  .00001073  00000+0  95739-4 0  9994
2 67079  70.0015   7.9115 0002243 259.1098 100.9809 14.99141046 13608
STARLINK-36158          
1 67080U 25298F   26071.23923773  .00005648  00000+0  48069-3 0  9991
2 67080  70.0012   7.8542 0002459 271.2287  88.8591 14.98339006 13600
STARLINK-35864          
1 67081U 25298G   26071.25001157  .00033917  00000+0  28371-2 0  9990
2 67081  70.0005   7.8765 0002827 274.2806  98.9401 14.98323113  5907
STARLINK-36035          
1 67082U 25298H   26071.25001157  .00043407  00000+0  36233-2 0  9992
2 67082  70.0007   7.9278 0003509 291.5625  36.5563 14.98326878  5907
